FLOCK 4G-11             
1 62629U 25009W   26068.45629261  .00012672  00000+0  47740-3 0  9990
2 62629  97.3964 150.6183 0001611 333.5407  26.5750 15.27220677 63680
STARLINK-33954          
1 63863U 25093AD  26068.06526560  .00039523  00000+0  14370-2 0  9995
2 63863  42.9998  81.6660 0001545 282.4069  77.6609 15.27604832 47657
